{
  "58230": {
    "noradId": "58230",
    "tle": [
      "1 58230C 23171A   25326.80673611  .00005585  00000+0  41212-3 0  3261",
      "2 58230  43.0013 146.8287 0001201 258.1407 218.9128 15.02527652    15"
    ]
  },
  "58231": {
    "noradId": "58231",
    "tle": [
      "1 58231C 23171B   25326.81020833  .00005153  00000+0  38024-3 0  3263",
      "2 58231  43.0013 146.8502 0001399 263.0247 214.8190 15.02524439    15"
    ]
  },
  "58232": {
    "noradId": "58232",
    "tle": [
      "1 58232C 23171C   25326.80673611  .00006745  00000+0  49774-3 0  3263",
      "2 58232  43.0013 146.9137 0001210 257.5732 183.4375 15.02524082    10"
    ]
  },
  "58233": {
    "noradId": "58233",
    "tle": [
      "1 58233C 23171D   25326.80951389  .00006742  00000+0  49749-3 0  3264",
      "2 58233  43.0012 146.9800 0001128 260.6307 159.3361 15.02526892    16"
    ]
  },
  "58234": {
    "noradId": "58234",
    "tle": [
      "1 58234C 23171E   25326.80951389  .00006940  00000+0  51217-3 0  3268",
      "2 58234  43.0013 146.9379 0001412 267.2744 170.7291 15.02523929    10"
    ]
  },
  "58236": {
    "noradId": "58236",
    "tle": [
      "1 58236C 23171G   25326.80951389  .00005173  00000+0  38172-3 0  3262",
      "2 58236  43.0018 147.0207 0000969 240.0715 161.8867 15.02525085    17"
    ]
  },
  "58237": {
    "noradId": "58237",
    "tle": [
      "1 58237C 23171H   25326.80951389  .00004531  00000+0  33437-3 0  3269",
      "2 58237  43.0013 146.6295 0001451 261.4657 302.7695 15.02527251    16"
    ]
  },
  "58238": {
    "noradId": "58238",
    "tle": [
      "1 58238C 23171J   25326.80812500  .00006847  00000+0  50529-3 0  3264",
      "2 58238  43.0017 147.0623 0001269 269.0893 107.3014 15.02523353    17"
    ]
  },
  "58239": {
    "noradId": "58239",
    "tle": [
      "1 58239C 23171K   25326.81159722  .00056857  00000+0  41998-2 0  3261",
      "2 58239  43.0012 147.0938 0001159 274.7607 102.4280 15.02438829    10"
    ]
  },
  "58240": {
    "noradId": "58240",
    "tle": [
      "1 58240C 23171L   25326.81090278 -.00004821  00000+0 -35584-3 0  3264",
      "2 58240  43.0013 148.1190 0001270 265.2420  28.7797 15.02527470    11"
    ]
  },
  "58241": {
    "noradId": "58241",
    "tle": [
      "1 58241C 23171M   25326.81159722  .00005907  00000+0  43590-3 0  3265",
      "2 58241  43.0012 147.1236 0001191 263.4238  95.7284 15.02524984    12"
    ]
  },
  "58242": {
    "noradId": "58242",
    "tle": [
      "1 58242C 23171N   25326.81298611  .00007158  00000+0  52806-3 0  3267",
      "2 58242  43.0013 146.6503 0001365 256.8250 308.1025 15.02535091    13"
    ]
  },
  "58243": {
    "noradId": "58243",
    "tle": [
      "1 58243C 23171P   25326.80881944  .00001200  00000+0  88536-4 0  3266",
      "2 58243  43.0010 146.3813 0001287 265.7148  42.9605 15.02527583    14"
    ]
  },
  "58244": {
    "noradId": "58244",
    "tle": [
      "1 58244C 23171Q   25326.81229167  .00006318  00000+0  46642-3 0  3267",
      "2 58244  43.0013 147.9549 0001264 257.3145 116.3548 15.02508389    15"
    ]
  },
  "58245": {
    "noradId": "58245",
    "tle": [
      "1 58245C 23171R   25326.80673611  .00007066  00000+0  52145-3 0  3260",
      "2 58245  43.0012 146.4352 0001455 258.7619  20.6096 15.02523793    15"
    ]
  },
  "58246": {
    "noradId": "58246",
    "tle": [
      "1 58246C 23171S   25326.81298611  .00002690  00000+0  19852-3 0  3261",
      "2 58246  43.0014 146.4854 0001313 261.3810  15.7697 15.02525171    15"
    ]
  },
  "58247": {
    "noradId": "58247",
    "tle": [
      "1 58247C 23171T   25326.79006944  .00007281  00000+0  53730-3 0  3269",
      "2 58247  43.0013 146.5688 0001441 265.5361 265.5261 15.02523137    12"
    ]
  },
  "58248": {
    "noradId": "58248",
    "tle": [
      "1 58248C 23171U   25326.80881944  .00002995  00000+0  22098-3 0  3263",
      "2 58248  43.0015 146.5510 0001285 246.7651 349.7821 15.02529885    11"
    ]
  },
  "58249": {
    "noradId": "58249",
    "tle": [
      "1 58249C 23171V   25326.80673611  .00004988  00000+0  36803-3 0  3267",
      "2 58249  43.0015 146.6041 0001147 263.6140 303.6079 15.02528573    17"
    ]
  },
  "58250": {
    "noradId": "58250",
    "tle": [
      "1 58250C 23171W   25326.80812500  .00006928  00000+0  51129-3 0  3265",
      "2 58250  43.0012 148.6382 0001917 259.7865 162.7825 15.02523443    15"
    ]
  },
  "58251": {
    "noradId": "58251",
    "tle": [
      "1 58251C 23171X   25326.81229167  .00004555  00000+0  33612-3 0  3269",
      "2 58251  43.0012 147.0879 0001103 263.5301  81.4050 15.02526222    10"
    ]
  },
  "58252": {
    "noradId": "58252",
    "tle": [
      "1 58252C 23171Y   25326.80743056  .00006857  00000+0  50602-3 0  3262",
      "2 58252  43.0015 146.7215 0001359 263.5157 253.3977 15.02523342    14"
    ]
  },
  "58352": {
    "noradId": "58352",
    "tle": [
      "1 58352C 23177B   25326.81159722  .00009176  00000+0  67722-3 0  3269",
      "2 58352  43.0012 212.6474 0000895 265.1843 135.8659 15.02519978    17"
    ]
  },
  "58353": {
    "noradId": "58353",
    "tle": [
      "1 58353C 23177C   25326.81229167  .00019824  00000+0  71828-3 0  3264",
      "2 58353  43.0001  92.3896 0001485 266.6890 275.1806 15.27547005    12"
    ]
  },
  "58354": {
    "noradId": "58354",
    "tle": [
      "1 58354C 23177D   25326.80881944  .00006884  00000+0  50794-3 0  3262",
      "2 58354  43.0016 212.1854 0001297 256.6318 333.7210 15.02527397    15"
    ]
  },
  "58355": {
    "noradId": "58355",
    "tle": [
      "1 58355C 23177E   25326.81159722  .00005885  00000+0  43421-3 0  3265",
      "2 58355  43.0017 212.7628 0000703 234.5126 124.4451 15.02529215    18"
    ]
  },
  "58356": {
    "noradId": "58356",
    "tle": [
      "1 58356C 23177F   25326.81090278  .00008512  00000+0  62814-3 0  3263",
      "2 58356  43.0016 212.5734 0001237 256.9565 164.3925 15.02523057    19"
    ]
  },
  "58357": {
    "noradId": "58357",
    "tle": [
      "1 58357C 23177G   25326.80743056  .00006518  00000+0  48098-3 0  3264",
      "2 58357  43.0012 198.5730 0001269 259.4914 245.0951 15.02525094    15"
    ]
  },
  "58358": {
    "noradId": "58358",
    "tle": [
      "1 58358C 23177H   25326.80812500  .00014303  00000+0  10561-2 0  3260",
      "2 58358  43.0015 212.6931 0001402 257.6526 118.5788 15.02492325    10"
    ]
  },
  "58359": {
    "noradId": "58359",
    "tle": [
      "1 58359C 23177J   25326.80951389 -.00001888  00000+0 -13932-3 0  3262",
      "2 58359  43.0021 212.1089 0001065 266.1084 358.0788 15.02531703    11"
    ]
  },
  "58360": {
    "noradId": "58360",
    "tle": [
      "1 58360C 23177K   25326.80743056  .00001381  00000+0  10187-3 0  3269",
      "2 58360  43.0014 212.7382 0001229 267.8797  86.5391 15.02538294    13"
    ]
  },
  "58361": {
    "noradId": "58361",
    "tle": [
      "1 58361C 23177L   25326.81159722  .00005012  00000+0  36976-3 0  3261",
      "2 58361  43.0015 212.5903 0001129 264.6448 166.4353 15.02533697    17"
    ]
  },
  "58362": {
    "noradId": "58362",
    "tle": [
      "1 58362C 23177M   25326.81090278  .00008881  00000+0  65540-3 0  3268",
      "2 58362  43.0013 212.5496 0001158 258.9085 186.4641 15.02519604    12"
    ]
  },
  "58363": {
    "noradId": "58363",
    "tle": [
      "1 58363C 23177N   25326.80604167  .00008689  00000+0  64148-3 0  3265",
      "2 58363  43.0014 212.5604 0001297 263.8235 161.2733 15.02506935    17"
    ]
  },
  "58364": {
    "noradId": "58364",
    "tle": [
      "1 58364C 23177P   25326.80673611  .00003779  00000+0  27887-3 0  3260",
      "2 58364  43.0009 210.8825 0001188 261.1125 151.6288 15.02526831    11"
    ]
  },
  "58365": {
    "noradId": "58365",
    "tle": [
      "1 58365C 23177Q   25326.81298611  .00007444  00000+0  54933-3 0  3260",
      "2 58365  43.0015 212.4078 0001339 261.3350 249.4077 15.02524046    15"
    ]
  },
  "58366": {
    "noradId": "58366",
    "tle": [
      "1 58366C 23177R   25326.80604167  .00006508  00000+0  48025-3 0  3262",
      "2 58366  43.0013 212.4881 0001184 264.7000 190.3902 15.02525596    15"
    ]
  },
  "58367": {
    "noradId": "58367",
    "tle": [
      "1 58367C 23177S   25326.81090278 -.00018095  00000+0 -13348-2 0  3261",
      "2 58367  43.0016 212.3753 0000661 270.8428 246.6097 15.02563405    18"
    ]
  },
  "58368": {
    "noradId": "58368",
    "tle": [
      "1 58368C 23177T   25326.81229167  .00008778  00000+0  64782-3 0  3267",
      "2 58368  43.0016 212.3966 0001214 271.6893 241.3108 15.02518283    14"
    ]
  },
  "58369": {
    "noradId": "58369",
    "tle": [
      "1 58369C 23177U   25326.80673611 -.00003107  00000+0 -22922-3 0  3267",
      "2 58369  43.0016 212.3688 0001111 258.5981 248.3399 15.02538904    15"
    ]
  },
  "58370": {
    "noradId": "58370",
    "tle": [
      "1 58370C 23177V   25326.80951389  .00004616  00000+0  34064-3 0  3264",
      "2 58370  43.0017 212.8285 0001278 263.5097  54.1285 15.02530234    19"
    ]
  },
  "58371": {
    "noradId": "58371",
    "tle": [
      "1 58371C 23177W   25326.81229167  .00005029  00000+0  37109-3 0  3260",
      "2 58371  43.0015 212.6650 0001195 261.2824 125.5218 15.02524854    13"
    ]
  },
  "58372": {
    "noradId": "58372",
    "tle": [
      "1 58372C 23177X   25326.80881944 -.00007037  00000+0 -51922-3 0  3269",
      "2 58372  43.0015 212.2844 0001231 250.2517 298.0045 15.02546363    16"
    ]
  },
  "58373": {
    "noradId": "58373",
    "tle": [
      "1 58373C 23177Y   25326.81159722  .00008672  00000+0  63999-3 0  3264",
      "2 58373  43.0014 212.5975 0000981 256.6317 156.4664 15.02521030    11"
    ]
  },
  "58374": {
    "noradId": "58374",
    "tle": [
      "1 58374C 23178A   25326.81298611  .00002460  00000+0  82907-4 0  3267",
      "2 58374  53.1574 137.3369 0001225  88.1235 156.2435 15.30191694    19"
    ]
  }
}